NORAD_CAT_ID,OBJECT_NAME,OBJECT_TYPE,EPOCH,MEAN_MOTION,ECCENTRICITY,INCLINATION,RA_OF_ASC_NODE,ARG_OF_PERICENTER,MEAN_ANOMALY,BSTAR,MEAN_MOTION_DOT,MEAN_MOTION_DDOT,TLE_LINE0,TLE_LINE1,TLE_LINE2,SEMIMAJOR_AXIS,PERIOD,APOGEE,PERIGEE,DECAYED
53038.0,STARLINK-4156,PAYLOAD,2024-03-06 11:04:31,15.08838834,0.0001458,53.2161,125.7091,72.1391,287.976,0.00072777,0.00011313,0.0,0 STARLINK-4156,1 53038U 22076BE  24066.46148101  .00011313  00000-0  72777-3 0  9991,2 53038  53.2161 125.7091 0001458  72.1391 287.9760 15.08838834 92890,6917.884,95.438,540.758,538.74,0.0
53038.0,STARLINK-4156,PAYLOAD,2024-03-07 12:30:42,15.0884676,0.0001468,53.216,120.9517,81.7589,278.3569,0.00055345,8.533e-05,0.0,0 STARLINK-4156,1 53038U 22076BE  24067.52132048  .00008533  00000-0  55345-3 0  9994,2 53038  53.2160 120.9517 0001468  81.7589 278.3569 15.08846760 92590,6917.86,95.437,540.74,538.709,0.0
53038.0,STARLINK-4156,PAYLOAD,2024-03-08 12:21:29,15.08835999,0.00014,53.2154,116.4914,83.9412,276.174,6.2777e-05,7.11e-06,0.0,0 STARLINK-4156,1 53038U 22076BE  24068.51492410  .00000711  00000-0  62777-4 0  9994,2 53038  53.2154 116.4914 0001400  83.9412 276.1740 15.08835999 93207,6917.893,95.438,540.726,538.789,0.0
53038.0,STARLINK-4156,PAYLOAD,2024-03-09 10:36:53,15.08850069,0.0001454,53.2153,112.327,80.4307,279.6849,0.00032816,4.94e-05,0.0,0 STARLINK-4156,1 53038U 22076BE  24069.44228127  .00004940  00000-0  32816-3 0  9997,2 53038  53.2153 112.3270 0001454  80.4307 279.6849 15.08850069 93348,6917.85,95.437,540.72,538.709,0.0
53038.0,STARLINK-4156,PAYLOAD,2024-03-09 20:09:11,15.08855022,0.000162,53.2154,110.5436,76.792,283.3253,0.0003663,5.549e-05,0.0,0 STARLINK-4156,1 53038U 22076BE  24069.83971850  .00005549  00000-0  36630-3 0  9992,2 53038  53.2154 110.5436 0001620  76.7920 283.3253 15.08855022 92947,6917.834,95.437,540.82,538.579,0.0
53038.0,STARLINK-4156,PAYLOAD,2024-03-10 08:52:17,15.08835936,0.0001352,53.2154,108.1624,86.6719,273.4428,6.9224e-05,8.14e-06,0.0,0 STARLINK-4156,1 53038U 22076BE  24070.36964537  .00000814  00000-0  69224-4 0  9992,2 53038  53.2154 108.1624 0001352  86.6719 273.4428 15.08835936 93483,6917.893,95.438,540.693,538.823,0.0
53038.0,STARLINK-4156,PAYLOAD,2024-03-11 05:32:17,15.08848314,0.00016,53.2156,104.295,103.8833,256.2337,0.00020953,3.049e-05,0.0,0 STARLINK-4156,1 53038U 22076BE  24071.23076020  .00003049  00000-0  20953-3 0  9998,2 53038  53.2156 104.2950 0001600 103.8833 256.2337 15.08848314 93616,6917.855,95.437,540.827,538.613,0.0
53038.0,STARLINK-4156,PAYLOAD,2024-03-11 08:43:04,15.08848091,0.0001483,53.215,103.7015,89.2978,270.8184,0.00027432,4.081e-05,0.0,0 STARLINK-4156,1 53038U 22076BE  24071.36324091  .00004081  00000-0  27432-3 0  9992,2 53038  53.2150 103.7015 0001483  89.2978 270.8184 15.08848091 93177,6917.856,95.437,540.747,538.695,0.0
53038.0,STARLINK-4156,PAYLOAD,2024-03-12 05:23:04,15.08843285,0.0001355,53.2159,99.8364,89.9691,270.1457,0.00011368,1.522e-05,0.0,0 STARLINK-4156,1 53038U 22076BE  24072.22436071  .00001522  00000-0  11368-3 0  9998,2 53038  53.2159  99.8364 0001355  89.9691 270.1457 15.08843285 93766,6917.87,95.437,540.673,538.798,0.0
53038.0,STARLINK-4156,PAYLOAD,2024-03-12 08:33:51,15.08841134,0.0001178,53.2157,99.2425,81.3437,278.7688,0.00014245,1.98e-05,0.0,0 STARLINK-4156,1 53038U 22076BE  24072.35684197  .00001980  00000-0  14245-3 0  9991,2 53038  53.2157  99.2425 0001178  81.3437 278.7688 15.08841134 93326,6917.877,95.437,540.557,538.927,0.0
53038.0,STARLINK-4156,PAYLOAD,2024-03-13 05:13:51,15.08838583,0.0001492,53.2158,95.3776,85.8004,274.3158,-1.4299e-05,-5.16e-06,0.0,0 STARLINK-4156,1 53038U 22076BE  24073.21796287 -.00000516  00000-0 -14299-4 0  9997,2 53038  53.2158  95.3776 0001492  85.8004 274.3158 15.08838583 93914,6917.885,95.438,540.782,538.718,0.0
53038.0,STARLINK-4156,PAYLOAD,2024-03-13 08:24:38,15.08837265,0.0001456,53.2167,94.7827,86.6271,273.4888,8.3742e-07,-2.75e-06,0.0,0 STARLINK-4156,1 53038U 22076BE  24073.35044659 -.00000275  00000-0  83742-6 0  9993,2 53038  53.2167  94.7827 0001456  86.6271 273.4888 15.08837265 93476,6917.889,95.438,540.761,538.747,0.0
53038.0,STARLINK-4156,PAYLOAD,2024-03-13 17:56:56,15.08844441,0.0001522,53.2171,92.9966,86.1776,273.939,7.5053e-05,9.07e-06,0.0,0 STARLINK-4156,1 53038U 22076BE  24073.74788032  .00000907  00000-0  75053-4 0  9991,2 53038  53.2171  92.9966 0001522  86.1776 273.9390 15.08844441 93538,6917.867,95.437,540.785,538.679,0.0
53038.0,STARLINK-4156,PAYLOAD,2024-03-14 06:40:02,15.08832867,0.0001581,53.2184,90.6198,93.3194,266.7979,5.4429e-05,5.78e-06,0.0,0 STARLINK-4156,1 53038U 22076BE  24074.27780930  .00000578  00000-0  54429-4 0  9997,2 53038  53.2184  90.6198 0001581  93.3194 266.7979 15.08832867 93614,6917.902,95.438,540.861,538.673,0.0
53038.0,STARLINK-4156,PAYLOAD,2024-03-14 09:50:48,15.08836202,0.0001576,53.2177,90.0256,92.6285,267.4887,7.6383e-05,9.28e-06,0.0,0 STARLINK-4156,1 53038U 22076BE  24074.41028743  .00000928  00000-0  76383-4 0  9992,2 53038  53.2177  90.0256 0001576  92.6285 267.4887 15.08836202 94098,6917.892,95.438,540.847,538.667,0.0
53038.0,STARLINK-4156,PAYLOAD,2024-03-15 09:41:35,15.08835526,0.0001628,53.2175,85.5646,95.3616,264.7562,9.1748e-05,1.172e-05,0.0,0 STARLINK-4156,1 53038U 22076BE  24075.40388867  .00001172  00000-0  91748-4 0  9992,2 53038  53.2175  85.5646 0001628  95.3616 264.7562 15.08835526 93787,6917.894,95.438,540.885,538.633,0.0
53038.0,STARLINK-4156,PAYLOAD,2024-03-16 04:46:13,15.08837268,0.0001533,53.2166,81.9948,94.2792,265.8375,9.8005e-05,1.272e-05,0.0,0 STARLINK-4156,1 53038U 22076BE  24076.19876850  .00001272  00000-0  98005-4 0  9997,2 53038  53.2166  81.9948 0001533  94.2792 265.8375 15.08837268 94364,6917.889,95.438,540.814,538.693,0.0
53038.0,STARLINK-4156,PAYLOAD,2024-03-16 09:32:22,15.08841402,0.0001518,53.2168,81.1025,95.9931,264.1234,8.0327e-05,9.91e-06,0.0,0 STARLINK-4156,1 53038U 22076BE  24076.39748651  .00000991  00000-0  80327-4 0  9991,2 53038  53.2168  81.1025 0001518  95.9931 264.1234 15.08841402 93933,6917.876,95.437,540.791,538.691,0.0
53038.0,STARLINK-4156,PAYLOAD,2024-03-17 09:23:09,15.08841356,0.0001563,53.2176,76.6383,87.8116,272.3055,7.2471e-05,8.66e-06,0.0,0 STARLINK-4156,1 53038U 22076BE  24077.39108703  .00000866  00000-0  72471-4 0  9992,2 53038  53.2176  76.6383 0001563  87.8116 272.3055 15.08841356 94541,6917.876,95.437,540.823,538.66,0.0
53038.0,STARLINK-4156,PAYLOAD,2024-03-18 06:03:10,15.08841227,0.0001596,53.2179,72.7709,79.5528,280.5644,4.5539e-05,4.37e-06,0.0,0 STARLINK-4156,1 53038U 22076BE  24078.25220786  .00000437  00000-0  45539-4 0  9993,2 53038  53.2179  72.7709 0001596  79.5528 280.5644 15.08841227 94210,6917.877,95.437,540.846,538.638,0.0
53038.0,STARLINK-4156,PAYLOAD,2024-03-19 04:18:34,15.08840978,0.0001517,53.2172,68.6101,107.6249,252.4909,5.9596e-05,6.61e-06,0.0,0 STARLINK-4156,1 53038U 22076BE  24079.17956636  .00000661  00000-0  59596-4 0  9992,2 53038  53.2172  68.6101 0001517 107.6249 252.4909 15.08840978 94819,6917.877,95.437,540.792,538.693,0.0
53038.0,STARLINK-4156,PAYLOAD,2024-03-19 09:04:43,15.08841035,0.0001451,53.2173,67.7179,106.6658,253.4494,5.1942e-05,5.39e-06,0.0,0 STARLINK-4156,1 53038U 22076BE  24079.37828637  .00000539  00000-0  51942-4 0  9994,2 53038  53.2173  67.7179 0001451 106.6658 253.4494 15.08841035 94382,6917.877,95.437,540.746,538.738,0.0
53038.0,STARLINK-4156,PAYLOAD,2024-03-20 08:55:31,15.08834088,0.0001375,53.2173,63.2576,99.2934,260.8214,5.251e-06,-2.04e-06,0.0,0 STARLINK-4156,1 53038U 22076BE  24080.37189484 -.00000204  00000-0  52510-5 0  9999,2 53038  53.2173  63.2576 0001375  99.2934 260.8214 15.08834088 94992,6917.898,95.438,540.715,538.812,0.0
53038.0,STARLINK-4156,PAYLOAD,2024-03-20 23:13:59,15.08838283,0.0001309,53.2174,60.5816,96.1277,263.9865,5.8129e-05,6.37e-06,0.0,0 STARLINK-4156,1 53038U 22076BE  24080.96805248  .00000637  00000-0  58129-4 0  9997,2 53038  53.2174  60.5816 0001309  96.1277 263.9865 15.08838283 94620,6917.886,95.438,540.656,538.845,0.0
53038.0,STARLINK-4156,PAYLOAD,2024-03-21 05:35:32,15.0884101,0.0001289,53.2174,59.3943,89.1288,270.9852,9.2414e-05,1.183e-05,0.0,0 STARLINK-4156,1 53038U 22076BE  24081.23301052  .00001183  00000-0  92414-4 0  9994,2 53038  53.2174  59.3943 0001289  89.1288 270.9852 15.08841010 95120,6917.877,95.437,540.634,538.851,0.0
53038.0,STARLINK-4156,PAYLOAD,2024-03-21 23:04:47,15.08829846,0.0001331,53.2177,56.1231,85.9451,274.1693,2.171e-05,5.8e-07,0.0,0 STARLINK-4156,1 53038U 22076BE  24081.96165991  .00000058  00000-0  21710-4 0  9995,2 53038  53.2177  56.1231 0001331  85.9451 274.1693 15.08829846 94774,6917.911,95.438,540.697,538.856,0.0
53038.0,STARLINK-4156,PAYLOAD,2024-03-22 03:50:56,15.08835544,0.0001409,53.2176,55.2301,80.2495,279.8656,7.3343e-05,8.79e-06,0.0,0 STARLINK-4156,1 53038U 22076BE  24082.16037598  .00000879  00000-0  73343-4 0  9999,2 53038  53.2176  55.2301 0001409  80.2495 279.8656 15.08835544 95261,6917.894,95.438,540.734,538.784,0.0
53038.0,STARLINK-4156,PAYLOAD,2024-03-22 21:20:10,15.08837421,0.000136,53.2186,51.9626,95.0171,265.0977,8.795e-05,1.112e-05,0.0,0 STARLINK-4156,1 53038U 22076BE  24082.88901518  .00001112  00000-0  87950-4 0  9990,2 53038  53.2186  51.9626 0001360  95.0171 265.0977 15.08837421 94916,6917.888,95.438,540.694,538.812,0.0
53038.0,STARLINK-4156,PAYLOAD,2024-03-23 05:17:07,15.08831251,0.0001351,53.2179,50.4718,94.2604,265.8542,-4.5139e-05,-1.006e-05,0.0,0 STARLINK-4156,1 53038U 22076BE  24083.22022514 -.00001006  00000-0 -45139-4 0  9996,2 53038  53.2179  50.4718 0001351  94.2604 265.8542 15.08831251 95424,6917.907,95.438,540.707,538.838,0.0
53038.0,STARLINK-4156,PAYLOAD,2024-03-23 06:52:30,15.08832694,0.0001342,53.218,50.174,95.5861,264.5284,-3.6615e-05,-8.7e-06,0.0,0 STARLINK-4156,1 53038U 22076BE  24083.28646357 -.00000870  00000-0 -36615-4 0  9996,2 53038  53.2180  50.1740 0001342  95.5861 264.5284 15.08832694 94977,6917.903,95.438,540.696,538.839,0.0
